{
"type": "FeatureCollection",
"name": "lucknow_100x100km",
"crs": { "type": "name", "properties": { "name": "urn:ogc:def:crs:EPSG::32644" } },
"features": [
{ "type": "Feature", "properties": { }, "geometry": { "type": "Polygon", "coordinates": [ [ [ 544220.186414439929649, 2925983.670012101531029 ], [ 544220.186414439929649, 3025983.670012101531029 ], [ 444220.186414439929649, 3025983.670012101531029 ], [ 444220.186414439929649, 2925983.670012101531029 ], [ 544220.186414439929649, 2925983.670012101531029 ] ] ] } }
]
}
